GLOBALSTAR M068         
1 32266U 07048D   25123.18390111 -.00000068  00000+0  19927-3 0  9990
2 32266  51.9881  79.4385 0001405  39.2905 334.6117 12.62822351812162
GLOBALSTAR M079         
1 37188U 10054A   25123.14523944 -.00000076  00000+0  15243-3 0  9993
2 37188  52.0038 276.8999 0000883 132.0550  39.0110 12.62273722671442
GLOBALSTAR M074         
1 37189U 10054B   25123.17212036 -.00000080  00000+0  13187-3 0  9994
2 37189  52.0015 276.1490 0000584 113.2429  58.7100 12.62274667671447
GLOBALSTAR M076         
1 37190U 10054C   25123.19810426 -.00000066  00000+0  21157-3 0  9995
2 37190  52.0027 276.2346 0000579 133.5269  38.0530 12.62262281671452
GLOBALSTAR M077         
1 37191U 10054D   25122.70510856 -.00000139  00000+0 -19831-3 0  9994
2 37191  52.0073 234.5805 0000534 127.4070  21.9786 12.62267588671408
GLOBALSTAR M075         
1 37192U 10054E   25123.57786059 -.00000080  00000+0  13156-3 0  9999
2 37192  51.9957 317.3623 0000761  95.5990 301.8772 12.62264310670745
GLOBALSTAR M073         
1 37193U 10054F   25123.25703771 -.00000074  00000+0  16439-3 0  9995
2 37193  52.0055 232.1241 0000557 142.6473 235.0672 12.62271075672217
GLOBALSTAR M083         
1 37739U 11033A   25122.74765280 -.00000085  00000+0  10416-3 0  9996
2 37739  51.9843 182.4685 0000465 130.8052  31.5178 12.62263727641115
GLOBALSTAR M088         
1 37740U 11033B   25122.92399417 -.00000107  00000+0 -16168-4 0  9990
2 37740  51.9726  87.4554 0000435  62.8150 302.3462 12.62265897636687
GLOBALSTAR M091         
1 37741U 11033C   25123.20628203 -.00000084  00000+0  10888-3 0  9996
2 37741  52.0015  50.0720 0000789  81.3122  66.4074 12.62267479637764
GLOBALSTAR M085         
1 37742U 11033D   25122.92591137 -.00000077  00000+0  15206-3 0  9991
2 37742  51.9892   2.0062 0000925  92.2149 281.0904 12.62268060638477
GLOBALSTAR M081         
1 37743U 11033E   25123.06110314 -.00000068  00000+0  19880-3 0  9994
2 37743  51.9984   4.3543 0000739  97.9104  49.4974 12.62263352638523
GLOBALSTAR M089         
1 37744U 11033F   25123.26400323 -.00000074  00000+0  16340-3 0  9994
2 37744  51.9941 317.9729 0000563  88.9695  81.8408 12.62269523639266
GLOBALSTAR M084         
1 38040U 11080A   25122.96084560 -.00000087  00000+0  95205-4 0  9995
2 38040  51.9995 186.1599 0000091 208.4011 323.3906 12.62265785616957
GLOBALSTAR M080         
1 38041U 11080B   25123.21887976 -.00000093  00000+0  59804-4 0  9999
2 38041  52.0046 186.9496 0000682  93.7670 301.3715 12.62262530617256
GLOBALSTAR M082         
1 38042U 11080C   25122.78918722 -.00000106  00000+0 -14264-4 0  9992
2 38042  52.0050 143.7133 0000579  89.2647  82.4345 12.62266017617935
GLOBALSTAR M092         
1 38043U 11080D   25123.07960146 -.00000077  00000+0  15083-3 0  9998
2 38043  52.0081 233.2027 0000511 120.0644  52.2658 12.62263991616461
GLOBALSTAR M090         
1 38044U 11080E   25122.81547128 -.00000103  00000+0  30431-5 0  9997
2 38044  51.9860 137.4991 0000335 100.7864  70.4831 12.62270084617886
GLOBALSTAR M086         
1 38045U 11080F   25122.96369848 -.00000087  00000+0  91827-4 0  9991
2 38045  51.9870 137.5950 0000821 209.0516 156.5341 12.62270361617858
GLOBALSTAR M097         
1 39072U 13005A   25123.14740281 -.00000092  00000+0  66321-4 0  9993
2 39072  52.0062  51.5344 0000540  89.5583 270.5346 12.62271834565208
GLOBALSTAR M093         
1 39073U 13005B   25123.04164213 -.00000083  00000+0  11441-3 0  9990
2 39073  51.9830  45.2305 0000617  85.9353 274.1584 12.62264229565188
GLOBALSTAR M094         
1 39074U 13005C   25122.96254444 -.00000074  00000+0  16614-3 0  9994
2 39074  51.9969 319.8121 0000957 114.5789 245.5177 12.62270548566684
GLOBALSTAR M096         
1 39075U 13005D   25123.13417978 -.00000077  00000+0  14672-3 0  9993
2 39075  52.0100   7.7683 0000914  96.7769 263.3201 12.62270858565951
GLOBALSTAR M078         
1 39076U 13005E   25123.18664912 -.00000112  00000+0 -44457-4 0  9997
2 39076  51.9861  92.1750 0001286  75.7350 284.3659 12.62261595564444
GLOBALSTAR M095         
1 39077U 13005F   25123.21315311 -.00000107  00000+0 -19221-4 0  9993
2 39077  51.9790  89.3138 0000816  90.5016 269.5944 12.62269424564458
GLOBALSTAR M087         
1 52888U 22064A   25122.84783407 -.00000078  00000+0  14597-3 0  9992
2 52888  51.9990 231.8323 0000745 126.9038 233.1897 12.62279265139315
